{
  "type": "FeatureCollection",
  "features": [
    {
      "type": "Feature",
      "properties": {
        "norad_id": 66823,
        "name": "STARLINK-35957",
        "group": "last-30-days",
        "lat": 58.61650291030223,
        "lon": -127.21974743593316,
        "alt_km": 335.5006000118028,
        "timestamp": "2025-12-13T16:48:31.466818+00:00",
        "meta_object_name": "STARLINK-35957",
        "meta_object_id": "2025-280C",
        "meta_epoch": "2025-12-12T20:00:01.999872",
        "meta_mean_motion": 15.79778122,
        "meta_eccentricity": 0.00036566,
        "meta_inclination": 69.9934,
        "meta_ra_of_asc_node": 198.5691,
        "meta_arg_of_pericenter": 275.3149,
        "meta_mean_anomaly": 265.6012,
        "meta_ephemeris_type": 0,
        "meta_classification_type": "U",
        "meta_norad_cat_id": 66823,
        "meta_element_set_no": 999,
        "meta_rev_at_epoch": 291,
        "meta_bstar": -0.010340696,
        "meta_mean_motion_dot": -0.01658422,
        "meta_mean_motion_ddot": 0,
        "tle_line1": "1 66823U 25280C   25346.83335648 -.01658422  00000+0 -10341-1 0  9991",
        "tle_line2": "2 66823  69.9934 198.5691 0003656 275.3149 265.6012 15.79778122  2910"
      },
      "geometry": {
        "type": "Point",
        "coordinates": [
          -127.21974743593316,
          58.61650291030223
        ]
      }
    },
    {
      "type": "Feature",
      "properties": {
        "norad_id": 66824,
        "name": "STARLINK-35896",
        "group": "last-30-days",
        "lat": 60.11761666011481,
        "lon": -124.54655280515401,
        "alt_km": 335.4170014039955,
        "timestamp": "2025-12-13T16:48:31.466830+00:00",
        "meta_object_name": "STARLINK-35896",
        "meta_object_id": "2025-280D",
        "meta_epoch": "2025-12-12T20:00:01.999872",
        "meta_mean_motion": 15.79778746,
        "meta_eccentricity": 0.00035496,
        "meta_inclination": 69.9935,
        "meta_ra_of_asc_node": 198.5668,
        "meta_arg_of_pericenter": 269.5471,
        "meta_mean_anomaly": 273.409,
        "meta_ephemeris_type": 0,
        "meta_classification_type": "U",
        "meta_norad_cat_id": 66824,
        "meta_element_set_no": 999,
        "meta_rev_at_epoch": 291,
        "meta_bstar": -0.010368389,
        "meta_mean_motion_dot": -0.01662193,
        "meta_mean_motion_ddot": 0,
        "tle_line1": "1 66824U 25280D   25346.83335648 -.01662193  00000+0 -10368-1 0  9991",
        "tle_line2": "2 66824  69.9935 198.5668 0003549 269.5471 273.4090 15.79778746  2915"
      },
      "geometry": {
        "type": "Point",
        "coordinates": [
          -124.54655280515401,
          60.11761666011481
        ]
      }
    },
    {
      "type": "Feature",
      "properties": {
        "norad_id": 66825,
        "name": "STARLINK-35476",
        "group": "last-30-days",
        "lat": 61.56353656942866,
        "lon": -121.61397813070747,
        "alt_km": 335.3803852017718,
        "timestamp": "2025-12-13T16:48:31.466840+00:00",
        "meta_object_name": "STARLINK-35476",
        "meta_object_id": "2025-280E",
        "meta_epoch": "2025-12-12T20:00:01.999872",
        "meta_mean_motion": 15.79771041,
        "meta_eccentricity": 0.00036273,
        "meta_inclination": 69.9933,
        "meta_ra_of_asc_node": 198.5643,
        "meta_arg_of_pericenter": 271.915,
        "meta_mean_anomaly": 273.1309,
        "meta_ephemeris_type": 0,
        "meta_classification_type": "U",
        "meta_norad_cat_id": 66825,
        "meta_element_set_no": 999,
        "meta_rev_at_epoch": 276,
        "meta_bstar": -0.010452723,
        "meta_mean_motion_dot": -0.0167346,
        "meta_mean_motion_ddot": 0,
        "tle_line1": "1 66825U 25280E   25346.83335648 -.01673460  00000+0 -10453-1 0  9996",
        "tle_line2": "2 66825  69.9933 198.5643 0003627 271.9150 273.1309 15.79771041  2769"
      },
      "geometry": {
        "type": "Point",
        "coordinates": [
          -121.61397813070747,
          61.56353656942866
        ]
      }
    },
    {
      "type": "Feature",
      "properties": {
        "norad_id": 66826,
        "name": "STARLINK-35898",
        "group": "last-30-days",
        "lat": 62.8411051220017,
        "lon": -118.65051052091484,
        "alt_km": 335.2213127048153,
        "timestamp": "2025-12-13T16:48:31.466850+00:00",
        "meta_object_name": "STARLINK-35898",
        "meta_object_id": "2025-280F",
        "meta_epoch": "2025-12-12T20:00:01.999872",
        "meta_mean_motion": 15.79794425,
        "meta_eccentricity": 0.00035466,
        "meta_inclination": 69.9933,
        "meta_ra_of_asc_node": 198.5619,
        "meta_arg_of_pericenter": 268.5834,
        "meta_mean_anomaly": 278.2916,
        "meta_ephemeris_type": 0,
        "meta_classification_type": "U",
        "meta_norad_cat_id": 66826,
        "meta_element_set_no": 999,
        "meta_rev_at_epoch": 291,
        "meta_bstar": -0.01048395,
        "meta_mean_motion_dot": -0.01679253,
        "meta_mean_motion_ddot": 0,
        "tle_line1": "1 66826U 25280F   25346.83335648 -.01679253  00000+0 -10484-1 0  9997",
        "tle_line2": "2 66826  69.9933 198.5619 0003546 268.5834 278.2916 15.79794425  2912"
      },
      "geometry": {
        "type": "Point",
        "coordinates": [
          -118.65051052091484,
          62.8411051220017
        ]
      }
    },
    {
      "type": "Feature",
      "properties": {
        "norad_id": 66827,
        "name": "STARLINK-35959",
        "group": "last-30-days",
        "lat": 64.13815506341896,
        "lon": -115.17208328572623,
        "alt_km": 335.1630731629848,
        "timestamp": "2025-12-13T16:48:31.466860+00:00",
        "meta_object_name": "STARLINK-35959",
        "meta_object_id": "2025-280G",
        "meta_epoch": "2025-12-12T20:00:01.999872",
        "meta_mean_motion": 15.79794376,
        "meta_eccentricity": 0.00037011,
        "meta_inclination": 69.9931,
        "meta_ra_of_asc_node": 198.5594,
        "meta_arg_of_pericenter": 272.6903,
        "meta_mean_anomaly": 276.2033,
        "meta_ephemeris_type": 0,
        "meta_classification_type": "U",
        "meta_norad_cat_id": 66827,
        "meta_element_set_no": 999,
        "meta_rev_at_epoch": 291,
        "meta_bstar": -0.010485584,
        "meta_mean_motion_dot": -0.01679648,
        "meta_mean_motion_ddot": 0,
        "tle_line1": "1 66827U 25280G   25346.83335648 -.01679648  00000+0 -10486-1 0  9998",
        "tle_line2": "2 66827  69.9931 198.5594 0003701 272.6903 276.2033 15.79794376  2912"
      },
      "geometry": {
        "type": "Point",
        "coordinates": [
          -115.17208328572623,
          64.13815506341896
        ]
      }
    },
    {
      "type": "Feature",
      "properties": {
        "norad_id": 66828,
        "name": "STARLINK-35982",
        "group": "last-30-days",
        "lat": 66.46361505962935,
        "lon": -107.13476308325836,
        "alt_km": 335.1064928416172,
        "timestamp": "2025-12-13T16:48:31.466872+00:00",
        "meta_object_name": "STARLINK-35982",
        "meta_object_id": "2025-280H",
        "meta_epoch": "2025-12-12T20:00:01.999872",
        "meta_mean_motion": 15.79784341,
        "meta_eccentricity": 0.00036163,
        "meta_inclination": 69.9931,
        "meta_ra_of_asc_node": 198.5545,
        "meta_arg_of_pericenter": 272.0194,
        "meta_mean_anomaly": 281.0729,
        "meta_ephemeris_type": 0,
        "meta_classification_type": "U",
        "meta_norad_cat_id": 66828,
        "meta_element_set_no": 999,
        "meta_rev_at_epoch": 291,
        "meta_bstar": -0.010688711,
        "meta_mean_motion_dot": -0.01706907,
        "meta_mean_motion_ddot": 0,
        "tle_line1": "1 66828U 25280H   25346.83335648 -.01706907  00000+0 -10689-1 0  9993",
        "tle_line2": "2 66828  69.9931 198.5545 0003616 272.0194 281.0729 15.79784341  2917"
      },
      "geometry": {
        "type": "Point",
        "coordinates": [
          -107.13476308325836,
          66.46361505962935
        ]
      }
    },
    {
      "type": "Feature",
      "properties": {
        "norad_id": 66829,
        "name": "STARLINK-36084",
        "group": "last-30-days",
        "lat": 65.34474307262042,
        "lon": -111.36387884593852,
        "alt_km": 335.11852548969546,
        "timestamp": "2025-12-13T16:48:31.466882+00:00",
        "meta_object_name": "STARLINK-36084",
        "meta_object_id": "2025-280J",
        "meta_epoch": "2025-12-12T20:00:01.999872",
        "meta_mean_motion": 15.79792609,
        "meta_eccentricity": 0.0003605,
        "meta_inclination": 69.993,
        "meta_ra_of_asc_node": 198.5569,
        "meta_arg_of_pericenter": 273.4571,
        "meta_mean_anomaly": 277.5374,
        "meta_ephemeris_type": 0,
        "meta_classification_type": "U",
        "meta_norad_cat_id": 66829,
        "meta_element_set_no": 999,
        "meta_rev_at_epoch": 275,
        "meta_bstar": -0.010650274,
        "meta_mean_motion_dot": -0.01702163,
        "meta_mean_motion_ddot": 0,
        "tle_line1": "1 66829U 25280J   25346.83335648 -.01702163  00000+0 -10650-1 0  9992",
        "tle_line2": "2 66829  69.9930 198.5569 0003605 273.4571 277.5374 15.79792609  2759"
      },
      "geometry": {
        "type": "Point",
        "coordinates": [
          -111.36387884593852,
          65.34474307262042
        ]
      }
    }
  ]
}